NORAD_CAT_ID,OBJECT_NAME,OBJECT_TYPE,EPOCH,MEAN_MOTION,ECCENTRICITY,INCLINATION,RA_OF_ASC_NODE,ARG_OF_PERICENTER,MEAN_ANOMALY,BSTAR,MEAN_MOTION_DOT,MEAN_MOTION_DDOT,TLE_LINE0,TLE_LINE1,TLE_LINE2,SEMIMAJOR_AXIS,PERIOD,APOGEE,PERIGEE,DECAYED
53619.0,STARLINK-4609,PAYLOAD,2023-12-01 02:08:55,15.08839672,0.0002141,53.2189,358.3354,91.6514,268.4723,0.00088194,0.00013776,0.0,0 STARLINK-4609,1 53619U 22104AH  23335.08953604  .00013776  00000-0  88194-3 0  9991,2 53619  53.2189 358.3354 0002141  91.6514 268.4723 15.08839672 69825,6917.881,95.438,541.228,538.265,0.0
53619.0,STARLINK-4609,PAYLOAD,2023-12-01 08:30:28,15.08835775,0.0001776,53.2179,357.1459,89.9999,270.1197,0.00031043,4.655e-05,0.0,0 STARLINK-4609,1 53619U 22104AH  23335.35449666  .00004655  00000-0  31043-3 0  9996,2 53619  53.2179 357.1459 0001776  89.9999 270.1197 15.08835775 69866,6917.893,95.438,540.987,538.53,0.0
53619.0,STARLINK-4609,PAYLOAD,2023-12-01 22:48:56,15.08853261,0.0001638,53.2173,354.4682,91.9391,268.1789,0.00048363,7.42e-05,0.0,0 STARLINK-4609,1 53619U 22104AH  23335.95065144  .00007420  00000-0  48363-3 0  9993,2 53619  53.2173 354.4682 0001638  91.9391 268.1789 15.08853261 69958,6917.84,95.437,540.838,538.572,0.0
53619.0,STARLINK-4609,PAYLOAD,2023-12-02 08:21:14,15.08897366,0.0001822,53.2181,352.6891,96.73,263.39,0.002164,0.00034375,0.0,0 STARLINK-4609,1 53619U 22104AH  23336.34808215  .00034375  00000-0  21640-2 0  9998,2 53619  53.2181 352.6891 0001822  96.7300 263.3900 15.08897366 70012,6917.705,95.434,540.83,538.31,0.0
53619.0,STARLINK-4609,PAYLOAD,2023-12-02 22:39:42,15.08846796,0.0002021,53.2177,350.0128,111.8116,248.3091,-0.00017812,-3.122e-05,0.0,0 STARLINK-4609,1 53619U 22104AH  23336.94424505 -.00003122  00000-0 -17812-3 0  9995,2 53619  53.2177 350.0128 0002021 111.8116 248.3091 15.08846796 70103,6917.86,95.437,541.123,538.327,0.0
53619.0,STARLINK-4609,PAYLOAD,2023-12-03 11:22:49,15.08805267,0.0001785,53.2174,347.6295,62.8611,297.2563,-0.00022546,-3.871e-05,0.0,0 STARLINK-4609,1 53619U 22104AH  23337.47418349 -.00003871  00000-0 -22546-3 0  9994,2 53619  53.2174 347.6295 0001785  62.8611 297.2563 15.08805267 70181,6917.987,95.44,541.086,538.617,0.0
53619.0,STARLINK-4609,PAYLOAD,2023-12-04 09:38:14,15.08839808,0.0001889,53.2173,343.4695,72.318,287.8019,0.0013508,0.00021275,0.0,0 STARLINK-4609,1 53619U 22104AH  23338.40155682  .00021275  00000-0  13508-2 0  9999,2 53619  53.2173 343.4695 0001889  72.3180 287.8019 15.08839808 70325,6917.881,95.438,541.053,538.439,0.0
53619.0,STARLINK-4609,PAYLOAD,2023-12-05 07:53:37,15.08881239,0.0001999,53.2172,339.306,71.3826,288.7383,0.0013829,0.00021814,0.0,0 STARLINK-4609,1 53619U 22104AH  23339.32890285  .00021814  00000-0  13829-2 0  9991,2 53619  53.2172 339.3060 0001999  71.3826 288.7383 15.08881239 71030,6917.754,95.435,541.002,538.236,0.0
53619.0,STARLINK-4609,PAYLOAD,2023-12-06 04:33:37,15.08858851,0.0001749,53.2182,335.4375,104.5396,255.5791,0.001021,0.00016007,0.0,0 STARLINK-4609,1 53619U 22104AH  23340.19001584  .00016007  00000-0  10210-2 0  9993,2 53619  53.2182 335.4375 0001749 104.5396 255.5791 15.08858851 70590,6917.823,95.436,540.898,538.478,0.0
53619.0,STARLINK-4609,PAYLOAD,2023-12-06 06:09:00,15.08864299,0.0001891,53.2179,335.1398,101.2664,258.8541,0.00039975,6.084e-05,0.0,0 STARLINK-4609,1 53619U 22104AH  23340.25625348  .00006084  00000-0  39975-3 0  9994,2 53619  53.2179 335.1398 0001891 101.2664 258.8541 15.08864299 71175,6917.806,95.436,540.979,538.363,0.0
53619.0,STARLINK-4609,PAYLOAD,2023-12-07 04:24:24,15.08836477,0.0002221,53.2172,330.9769,103.7436,256.3803,0.00037323,5.656e-05,0.0,0 STARLINK-4609,1 53619U 22104AH  23341.18361931  .00005656  00000-0  37323-3 0  9991,2 53619  53.2172 330.9769 0002221 103.7436 256.3803 15.08836477 70748,6917.891,95.438,541.293,538.22,0.0
53619.0,STARLINK-4609,PAYLOAD,2023-12-07 05:59:47,15.0883808,0.0001955,53.2177,330.6803,94.3737,265.7478,0.00012333,1.675e-05,0.0,0 STARLINK-4609,1 53619U 22104AH  23341.24985885  .00001675  00000-0  12333-3 0  9999,2 53619  53.2177 330.6803 0001955  94.3737 265.7478 15.08838080 71320,6917.886,95.438,541.104,538.399,0.0
53619.0,STARLINK-4609,PAYLOAD,2023-12-08 09:01:21,15.08845188,0.0001953,53.2174,325.6252,94.1542,265.9674,0.0001652,2.342e-05,0.0,0 STARLINK-4609,1 53619U 22104AH  23342.37593818  .00002342  00000-0  16520-3 0  9999,2 53619  53.2174 325.6252 0001953  94.1542 265.9674 15.08845188 70921,6917.865,95.437,541.081,538.378,0.0
53619.0,STARLINK-4609,PAYLOAD,2023-12-09 04:05:58,15.0883923,0.0001904,53.2173,322.0555,94.7564,265.3646,0.00010206,1.336e-05,0.0,0 STARLINK-4609,1 53619U 22104AH  23343.17082145  .00001336  00000-0  10206-3 0  9991,2 53619  53.2173 322.0555 0001904  94.7564 265.3646 15.08839230 71041,6917.883,95.438,541.065,538.431,0.0
53619.0,STARLINK-4609,PAYLOAD,2023-12-09 08:52:08,15.08840173,0.0001947,53.2175,321.1638,96.1208,264.0006,0.00010138,1.326e-05,0.0,0 STARLINK-4609,1 53619U 22104AH  23343.36954090  .00001326  00000-0  10138-3 0  9992,2 53619  53.2175 321.1638 0001947  96.1208 264.0006 15.08840173 71643,6917.88,95.438,541.092,538.398,0.0
53619.0,STARLINK-4609,PAYLOAD,2023-12-10 08:42:56,15.08835225,0.000204,53.2189,316.7024,102.6722,257.4498,3.2901e-05,2.35e-06,0.0,0 STARLINK-4609,1 53619U 22104AH  23344.36314850  .00000235  00000-0  32901-4 0  9998,2 53619  53.2189 316.7024 0002040 102.6722 257.4498 15.08835225 71223,6917.895,95.438,541.171,538.349,0.0
53619.0,STARLINK-4609,PAYLOAD,2023-12-11 05:22:56,15.08837899,0.0001952,53.219,312.8375,97.2319,262.8895,7.8903e-05,9.68e-06,0.0,0 STARLINK-4609,1 53619U 22104AH  23345.22426798  .00000968  00000-0  78903-4 0  9994,2 53619  53.2190 312.8375 0001952  97.2319 262.8895 15.08837899 71920,6917.887,95.438,541.102,538.401,0.0
53619.0,STARLINK-4609,PAYLOAD,2023-12-12 03:38:20,15.08839843,0.000194,53.2191,308.6757,90.2068,269.9147,0.00012166,1.649e-05,0.0,0 STARLINK-4609,1 53619U 22104AH  23346.15162814  .00001649  00000-0  12166-3 0  9998,2 53619  53.2191 308.6757 0001940  90.2068 269.9147 15.08839843 71490,6917.881,95.438,541.088,538.404,0.0
53619.0,STARLINK-4609,PAYLOAD,2023-12-12 05:13:43,15.08840949,0.000195,53.2191,308.378,82.9941,277.1272,0.00013648,1.885e-05,0.0,0 STARLINK-4609,1 53619U 22104AH  23346.21786851  .00001885  00000-0  13648-3 0  9996,2 53619  53.2191 308.3780 0001950  82.9941 277.1272 15.08840949 72076,6917.877,95.437,541.091,538.394,0.0
53619.0,STARLINK-4609,PAYLOAD,2023-12-13 05:04:30,15.0884573,0.0001993,53.2191,303.9197,78.67,281.4516,0.00010133,1.325e-05,0.0,0 STARLINK-4609,1 53619U 22104AH  23347.21146661  .00001325  00000-0  10133-3 0  9991,2 53619  53.2191 303.9197 0001993  78.6700 281.4516 15.08845730 71656,6917.863,95.437,541.107,538.349,0.0
53619.0,STARLINK-4609,PAYLOAD,2023-12-14 03:19:54,15.08842847,0.0002001,53.2188,299.7585,79.5726,280.5492,5.5936e-05,6.02e-06,0.0,0 STARLINK-4609,1 53619U 22104AH  23348.13882853  .00000602  00000-0  55936-4 0  9991,2 53619  53.2188 299.7585 0002001  79.5726 280.5492 15.08842847 71798,6917.872,95.437,541.121,538.352,0.0
53619.0,STARLINK-4609,PAYLOAD,2023-12-15 03:10:41,15.0884988,0.0001958,53.2186,295.3022,81.9442,278.1772,0.00010897,1.447e-05,0.0,0 STARLINK-4609,1 53619U 22104AH  23349.13242003  .00001447  00000-0  10897-3 0  9993,2 53619  53.2186 295.3022 0001958  81.9442 278.1772 15.08849880 71941,6917.85,95.437,541.07,538.361,0.0
53619.0,STARLINK-4609,PAYLOAD,2023-12-16 01:26:05,15.08833889,0.0002255,53.22,291.1382,120.2443,239.8773,-2.1249e-05,-6.26e-06,0.0,0 STARLINK-4609,1 53619U 22104AH  23350.05978966 -.00000626  00000-0 -21249-4 0  9994,2 53619  53.2200 291.1382 0002255 120.2443 239.8773 15.08833889 72083,6917.899,95.438,541.324,538.204,0.0
53619.0,STARLINK-4609,PAYLOAD,2023-12-17 01:16:52,15.08843635,0.0001601,53.2167,286.6732,102.9014,257.2157,5.5656e-05,5.98e-06,0.0,0 STARLINK-4609,1 53619U 22104AH  23351.05338736  .00000598  00000-0  55656-4 0  9995,2 53619  53.2167 286.6732 0001601 102.9014 257.2157 15.08843635 72235,6917.869,95.437,540.842,538.627,0.0
53619.0,STARLINK-4609,PAYLOAD,2023-12-18 02:43:02,15.08862085,0.0001492,53.2164,281.9164,94.7076,265.4086,0.00050276,7.727e-05,0.0,0 STARLINK-4609,1 53619U 22104AH  23352.11322038  .00007727  00000-0  50276-3 0  9994,2 53619  53.2164 281.9164 0001492  94.7076 265.4086 15.08862085 72392,6917.813,95.436,540.71,538.646,0.0
53619.0,STARLINK-4609,PAYLOAD,2023-12-19 02:33:50,15.08821853,0.0001215,53.2159,277.457,84.4878,275.6253,-0.00027301,-4.628e-05,0.0,0 STARLINK-4609,1 53619U 22104AH  23353.10683846 -.00004628  00000-0 -27301-3 0  9993,2 53619  53.2159 277.4570 0001215  84.4878 275.6253 15.08821853 72540,6917.936,95.439,540.641,538.96,0.0
53619.0,STARLINK-4609,PAYLOAD,2023-12-20 02:24:37,15.08857907,0.0001225,53.216,272.9933,102.812,257.3009,0.0012476,0.00019633,0.0,0 STARLINK-4609,1 53619U 22104AH  23354.10043208  .00019633  00000-0  12476-2 0  9992,2 53619  53.2160 272.9933 0001225 102.8120 257.3009 15.08857907 72692,6917.826,95.436,540.538,538.843,0.0
53619.0,STARLINK-4609,PAYLOAD,2023-12-21 02:15:24,15.08859226,0.0001209,53.2159,268.5346,87.1569,272.9561,0.00025007,3.696e-05,0.0,0 STARLINK-4609,1 53619U 22104AH  23355.09402842  .00003696  00000-0  25007-3 0  9991,2 53619  53.2159 268.5346 0001209  87.1569 272.9561 15.08859226 72842,6917.822,95.436,540.523,538.85,0.0
53619.0,STARLINK-4609,PAYLOAD,2023-12-21 22:55:25,15.08833611,0.0001541,53.2168,264.6659,75.5648,284.5515,0.00021902,3.199e-05,0.0,0 STARLINK-4609,1 53619U 22104AH  23355.95515546  .00003199  00000-0  21902-3 0  9990,2 53619  53.2168 264.6659 0001541  75.5648 284.5515 15.08833611 73540,6917.9,95.438,540.831,538.699,0.0
53619.0,STARLINK-4609,PAYLOAD,2023-12-22 00:30:48,15.08833741,0.0001824,53.2168,264.3682,63.318,296.7998,0.00032168,4.834e-05,0.0,0 STARLINK-4609,1 53619U 22104AH  23356.02139757  .00004834  00000-0  32168-3 0  9998,2 53619  53.2168 264.3682 0001824  63.3180 296.7998 15.08833741 72984,6917.9,95.438,541.026,538.503,0.0
